[Satellite]
VERSION=1.1
NAME=NOAA 16
NICKNAME=NOAA 16
TLE1=1 26536U 00055A   17186.19680759 -.00000013  00000-0  16934-4 0  9992
TLE2=2 26536  98.8551 258.7675 0009438 270.5292  89.4799 14.13179853161940
